STARLINK-31003          
1 58520U 23191N   24227.60581161 -.00002113  00000+0 -14155-3 0  9998
2 58520  43.0068 334.6455 0002253 281.1204  78.9385 15.02496194 39387
STARLINK-31015          
1 58521U 23191P   24227.60249621 -.00007891  00000+0 -57035-3 0  9993
2 58521  43.0062 334.6276 0000841 270.5333  89.5413 15.02494886 39352
STARLINK-31023          
1 58522U 23191Q   24227.59915950 -.00005820  00000+0 -41669-3 0  9993
2 58522  43.0008 334.5954 0000914 228.8216 131.2548 15.02489258 39386
STARLINK-30932          
1 58523U 23191R   24227.59583231  .00012724  00000+0  95634-3 0  9997
2 58523  43.0002 334.5686 0001779 275.5124  84.5516 15.02492565 39335
STARLINK-30992          
1 58524U 23191S   24227.33335648  .00049255  00000+0  36417-2 0  9999
2 58524  43.0039 335.9516 0001141 232.7103 164.0910 15.02473988  5746
STARLINK-30948          
1 58525U 23191T   24227.58917536  .00005063  00000+0  38974-3 0  9999
2 58525  42.9990 334.5149 0002325 272.1928  87.8648 15.02522931 39386
STARLINK-31013          
1 58526U 23191U   24227.58582891 -.00003033  00000+0 -20965-3 0  9990
2 58526  43.0001 334.4905 0001041 247.1123 112.9609 15.02513747 39386
STARLINK-31001          
1 58527U 23191V   24227.56918520  .00000232  00000+0  32240-4 0  9997
2 58527  43.0004 334.2828 0001163 254.6533 105.4181 15.02514968 39383
STARLINK-31004          
1 58528U 23191W   24227.58253719 -.00019155  00000+0 -14098-2 0  9997
2 58528  43.0012 334.4666 0002672 284.8484  75.2063 15.02452477 39380
STARLINK-30988          
1 58529U 23191X   24227.57918616 -.00001746  00000+0 -11428-3 0  9993
2 58529  43.0006 334.4430 0000700 229.0299 131.0483 15.02514486 38877
STARLINK-31009          
1 58530U 23191Y   24227.57585038 -.00010165  00000+0 -73917-3 0  9999
2 58530  43.0028 334.4198 0000734 269.1916  90.8843 15.02504113 39400
STARLINK-31012          
1 58531U 23192A   24227.35345719  .00025432  00000+0  76529-3 0  9990
2 58531  53.1574 202.2138 0001272 108.1602 251.9539 15.34233376 38346
STARLINK-31035          
1 58532U 23192B   24227.33335648  .00045704  00000+0  15466-2 0  9995
2 58532  53.1566 200.9769 0001379  87.1615 103.4028 15.30182488  5926
STARLINK-31036          
1 58533U 23192C   24227.35368121  .00025982  00000+0  88608-3 0  9995
2 58533  53.1576 201.5252 0001256  96.3811 263.7333 15.30207315 38355
STARLINK-30936          
1 58534U 23192D   24227.32515881 -.00010101  00000+0 -29012-3 0  9993
2 58534  53.1597 202.0452 0001434  81.5638 278.5527 15.34195502 38344
STARLINK-31032          
1 58535U 23192E   24227.34846610  .00029118  00000+0  87396-3 0  9998
2 58535  53.1583 202.1824 0001764  78.4831 281.6370 15.34240977 38348
STARLINK-31037          
1 58536U 23192F   24227.33749909  .00010783  00000+0  40157-3 0  9993
2 58536  53.1592 200.7097 0001137  93.9405 266.1724 15.28004090 38368
STARLINK-31041          
1 58537U 23192G   24227.33914116  .00005335  00000+0  16984-3 0  9996
2 58537  53.1586 202.1251 0001346 112.2505 247.8640 15.34224659 38341
STARLINK-31014          
1 58538U 23192H   24227.32050655  .00031215  00000+0  93597-3 0  9996
2 58538  53.1594 202.0097 0001475 111.6500 248.4659 15.34236641 38340
STARLINK-31055          
1 58539U 23192J   24227.31584882 -.00002386  00000+0 -59857-4 0  9991
2 58539  53.1597 201.9772 0001414  94.3518 265.7646 15.34215019 38345
STARLINK-31019          
1 58540U 23192K   24227.19954612  .00036327  00000+0  10870-2 0  9991
2 58540  53.1586 202.6777 0001508  74.5812 285.5357 15.34227541 38329
STARLINK-31045          
1 58541U 23192L   24227.41563447  .00000530  00000+0  56374-4 0  9997
2 58541  53.1569 221.2424 0001409  84.0915 276.0235 15.04921986 38081
STARLINK-31030          
1 58542U 23192M   24227.31151998  .00032615  00000+0  97735-3 0  9995
2 58542  53.1594 201.9486 0001726 112.3774 247.7411 15.34233997 38344
STARLINK-31049          
1 58543U 23192N   24227.37167105 -.00000218  00000+0  46997-5 0  9990
2 58543  53.1624 201.6123 0001879  96.1102 264.0115 15.34216770 38351
STARLINK-31048          
1 58544U 23192P   24227.36556955  .00039528  00000+0  14340-2 0  9994
2 58544  53.1558 200.8268 0001405 114.4405 245.6741 15.27977193 38360
STARLINK-31057          
1 58545U 23192Q   24227.30187036  .00053720  00000+0  15975-2 0  9994
2 58545  53.1573 201.8923 0001613 113.1646 246.9527 15.34245675 38346
STARLINK-31050          
1 58546U 23192R   24227.22740848 -.00000156  00000+0  65483-5 0  9990
2 58546  53.1584 202.1397 0001261  77.7124 282.4020 15.34208541 38336
STARLINK-31063          
1 58547U 23192S   24227.20823665 -.00006844  00000+0 -19288-3 0  9999
2 58547  53.1599 200.5518 0001379 102.9351 257.1805 15.34192736 38353
STARLINK-31016          
1 58548U 23192T   24227.35620172 -.00006415  00000+0 -21930-3 0  9995
2 58548  53.1567 200.7672 0001650 107.8379 252.2801 15.27991446 38368
STARLINK-31053          
1 58549U 23192U   24227.33335648  .00027619  00000+0  94212-3 0  9995
2 58549  53.1591 201.5666 0001690  93.9608 171.6296 15.30166990  5720
