OBJECT_NAME,OBJECT_ID,EPOCH,MEAN_MOTION,ECCENTRICITY,INCLINATION,RA_OF_ASC_NODE,ARG_OF_PERICENTER,MEAN_ANOMALY,EPHEMERIS_TYPE,CLASSIFICATION_TYPE,NORAD_CAT_ID,ELEMENT_SET_NO,REV_AT_EPOCH,BSTAR,MEAN_MOTION_DOT,MEAN_MOTION_DDOT
STARLINK-31003,2023-191N,2024-08-14T14:32:22.123104,15.02496194,.0002253,43.0068,334.6455,281.1204,78.9385,0,U,58520,999,3938,-.14155E-3,-.2113E-4,0
STARLINK-31015,2023-191P,2024-08-14T14:27:35.672544,15.02494886,.0000841,43.0062,334.6276,270.5333,89.5413,0,U,58521,999,3935,-.57035E-3,-.7891E-4,0
STARLINK-31023,2023-191Q,2024-08-14T14:22:47.380800,15.02489258,.0000914,43.0008,334.5954,228.8216,131.2548,0,U,58522,999,3938,-.41669E-3,-.582E-4,0
STARLINK-30932,2023-191R,2024-08-14T14:17:59.911584,15.02492565,.0001779,43.0002,334.5686,275.5124,84.5516,0,U,58523,999,3933,.95634E-3,.12724E-3,0
STARLINK-30992,2023-191S,2024-08-14T08:00:01.999872,15.02473988,.0001141,43.0039,335.9516,232.7103,164.0910,0,U,58524,999,574,.36417E-2,.49255E-3,0
STARLINK-30948,2023-191T,2024-08-14T14:08:24.751104,15.02522931,.0002325,42.9990,334.5149,272.1928,87.8648,0,U,58525,999,3938,.38974E-3,.5063E-4,0
STARLINK-31013,2023-191U,2024-08-14T14:03:35.617824,15.02513747,.0001041,43.0001,334.4905,247.1123,112.9609,0,U,58526,999,3938,-.20965E-3,-.3033E-4,0
STARLINK-31001,2023-191V,2024-08-14T13:39:37.601280,15.02514968,.0001163,43.0004,334.2828,254.6533,105.4181,0,U,58527,999,3938,.3224E-4,.232E-5,0
STARLINK-31004,2023-191W,2024-08-14T13:58:51.213216,15.02452477,.0002672,43.0012,334.4666,284.8484,75.2063,0,U,58528,999,3938,-.14098E-2,-.19155E-3,0
STARLINK-30988,2023-191X,2024-08-14T13:54:01.684224,15.02514486,.00007,43.0006,334.4430,229.0299,131.0483,0,U,58529,999,3887,-.11428E-3,-.1746E-4,0
STARLINK-31009,2023-191Y,2024-08-14T13:49:13.472832,15.02504113,.0000734,43.0028,334.4198,269.1916,90.8843,0,U,58530,999,3940,-.73917E-3,-.10165E-3,0
STARLINK-31012,2023-192A,2024-08-14T08:28:58.701216,15.34233376,.0001272,53.1574,202.2138,108.1602,251.9539,0,U,58531,999,3834,.76529E-3,.25432E-3,0
STARLINK-31035,2023-192B,2024-08-14T08:00:01.999872,15.30182488,.0001379,53.1566,200.9769,87.1615,103.4028,0,U,58532,999,592,.15466E-2,.45704E-3,0
STARLINK-31036,2023-192C,2024-08-14T08:29:18.056544,15.30207315,.0001256,53.1576,201.5252,96.3811,263.7333,0,U,58533,999,3835,.88608E-3,.25982E-3,0
STARLINK-30936,2023-192D,2024-08-14T07:48:13.721184,15.34195502,.0001434,53.1597,202.0452,81.5638,278.5527,0,U,58534,999,3834,-.29012E-3,-.10101E-3,0
STARLINK-31032,2023-192E,2024-08-14T08:21:47.471040,15.34240977,.0001764,53.1583,202.1824,78.4831,281.6370,0,U,58535,999,3834,.87396E-3,.29118E-3,0
STARLINK-31037,2023-192F,2024-08-14T08:05:59.921376,15.28004090,.0001137,53.1592,200.7097,93.9405,266.1724,0,U,58536,999,3836,.40157E-3,.10783E-3,0
STARLINK-31041,2023-192G,2024-08-14T08:08:21.796224,15.34224659,.0001346,53.1586,202.1251,112.2505,247.8640,0,U,58537,999,3834,.16984E-3,.5335E-4,0
STARLINK-31014,2023-192H,2024-08-14T07:41:31.765920,15.34236641,.0001475,53.1594,202.0097,111.6500,248.4659,0,U,58538,999,3834,.93597E-3,.31215E-3,0
STARLINK-31055,2023-192J,2024-08-14T07:34:49.338048,15.34215019,.0001414,53.1597,201.9772,94.3518,265.7646,0,U,58539,999,3834,-.59857E-4,-.2386E-4,0
STARLINK-31019,2023-192K,2024-08-14T04:47:20.784768,15.34227541,.0001508,53.1586,202.6777,74.5812,285.5357,0,U,58540,999,3832,.1087E-2,.36327E-3,0
STARLINK-31045,2023-192L,2024-08-14T09:58:30.818208,15.04921986,.0001409,53.1569,221.2424,84.0915,276.0235,0,U,58541,999,3808,.56374E-4,.53E-5,0
STARLINK-31030,2023-192M,2024-08-14T07:28:35.326272,15.34233997,.0001726,53.1594,201.9486,112.3774,247.7411,0,U,58542,999,3834,.97735E-3,.32615E-3,0
STARLINK-31049,2023-192N,2024-08-14T08:55:12.378720,15.34216770,.0001879,53.1624,201.6123,96.1102,264.0115,0,U,58543,999,3835,.46997E-5,-.218E-5,0
STARLINK-31048,2023-192P,2024-08-14T08:46:25.209120,15.27977193,.0001405,53.1558,200.8268,114.4405,245.6741,0,U,58544,999,3836,.1434E-2,.39528E-3,0
STARLINK-31057,2023-192Q,2024-08-14T07:14:41.599104,15.34245675,.0001613,53.1573,201.8923,113.1646,246.9527,0,U,58545,999,3834,.15975E-2,.5372E-3,0
STARLINK-31050,2023-192R,2024-08-14T05:27:28.092672,15.34208541,.0001261,53.1584,202.1397,77.7124,282.4020,0,U,58546,999,3833,.65483E-5,-.156E-5,0
STARLINK-31063,2023-192S,2024-08-14T04:59:51.646560,15.34192736,.0001379,53.1599,200.5518,102.9351,257.1805,0,U,58547,999,3835,-.19288E-3,-.6844E-4,0
STARLINK-31016,2023-192T,2024-08-14T08:32:55.828608,15.27991446,.000165,53.1567,200.7672,107.8379,252.2801,0,U,58548,999,3836,-.2193E-3,-.6415E-4,0
STARLINK-31053,2023-192U,2024-08-14T08:00:01.999872,15.30166990,.000169,53.1591,201.5666,93.9608,171.6296,0,U,58549,999,572,.94212E-3,.27619E-3,0
